     2.100          NAVIGATION                              RINEX VERSION / TYPE
fic2rin                                 08/26/2015 00:09:50 PGM / RUN BY / DATE
                                                            END OF HEADER
12 15  8 25 22  0  0.0  .322175677866D-03  .341060513165D-11  .000000000000D+00
     .460000000000D+02  .453437500000D+02  .395945064130D-08  .249112423472D+01
     .230409204960D-05  .552214821801D-02  .292994081974D-05  .515361979675D+04
     .252000000000D+06 -.502914190292D-07  .674160905279D+00 -.130385160446D-07
     .990046788771D+00  .337187500000D+03  .648474470307D+00 -.804854954011D-08
     .216794744657D-09  .100000000000D+01  .185900000000D+04  .000000000000D+00
     .240000000000D+01  .000000000000D+00 -.125728547573D-07  .460000000000D+02
     .244806000000D+06  .400000000000D+01
13 15  8 25 22  0  0.0 -.143959186971D-03 -.306954461848D-11  .000000000000D+00
     .620000000000D+02 -.659375000000D+01  .424553398639D-08 -.246378005901D+01
    -.428408384323D-06  .474785198458D-02  .976771116257D-05  .515368167877D+04
     .252000000000D+06  .447034835815D-07 -.135617528146D+01  .447034835815D-07
     .973062337666D+00  .199000000000D+03  .208915190111D+01 -.775960893314D-08
    -.696457581682D-09  .100000000000D+01  .185900000000D+04  .000000000000D+00
     .240000000000D+01  .000000000000D+00 -.111758708954D-07  .620000000000D+02
     .244806000000D+06  .400000000000D+01
14 15  8 25 22  0  0.0  .392510555685D-04 -.261479726760D-11  .000000000000D+00
     .900000000000D+02 -.737500000000D+01  .458769109575D-08 -.523028332149D+00
    -.365078449249D-06  .846622139215D-02  .877864658833D-05  .515364039803D+04
     .252000000000D+06 -.596046447754D-07 -.139140239269D+01  .124797224998D-06
     .965542840723D+00  .214750000000D+03 -.196148222841D+01 -.816784022333D-08
    -.546808491054D-09  .100000000000D+01  .185900000000D+04  .000000000000D+00
     .240000000000D+01  .000000000000D+00 -.931322574615D-08  .900000000000D+02
     .244806000000D+06  .400000000000D+01
15 15  8 25 22  0  0.0 -.268050469458D-03 -.204636307899D-11  .000000000000D+00
     .800000000000D+02 -.221250000000D+02  .531414992710D-08 -.119189886776D+01
    -.115111470222D-05  .734610215295D-02  .791624188423D-05  .515369614601D+04
     .252000000000D+06  .145286321640D-06 -.151856548905D+01 -.156462192535D-06
     .932230771176D+00  .212906250000D+03  .396015100053D+00 -.836463413487D-08
    -.580024160334D-09  .100000000000D+01  .185900000000D+04  .000000000000D+00
     .240000000000D+01  .000000000000D+00 -.107102096081D-07  .800000000000D+02
     .244806000000D+06  .400000000000D+01
16 15  8 25 22  0  0.0 -.935122370720D-04  .409272615798D-11  .000000000000D+00
     .600000000000D+02  .299062500000D+02  .393837833498D-08  .477063830846D+00
     .166147947311D-05  .808684958611D-02  .299699604511D-05  .515361045647D+04
     .252000000000D+06  .106170773506D-06  .692861877164D+00  .126659870148D-06
     .990571891512D+00  .335937500000D+03  .324347467494D+00 -.813141013444D-08
     .155006456641D-09  .100000000000D+01  .185900000000D+04  .000000000000D+00
     .240000000000D+01  .000000000000D+00 -.102445483208D-07  .600000000000D+02
     .244806000000D+06  .400000000000D+01
17 15  8 25 22  0  0.0 -.185457989573D-03 -.136424205266D-11  .000000000000D+00
     .820000000000D+02 -.113062500000D+03  .438911139554D-08 -.514647315435D+00
    -.574253499508D-05  .103240606841D-01  .683963298798D-05  .515356399536D+04
     .252000000000D+06 -.502914190292D-07  .171848823071D+01  .145286321640D-06
     .973161816096D+00  .258187500000D+03 -.201069935105D+01 -.828320217148D-08
    -.110361739867D-09  .100000000000D+01  .185900000000D+04  .000000000000D+00
     .340000000000D+01  .000000000000D+00 -.107102096081D-07  .820000000000D+02
     .244806000000D+06  .400000000000D+01
19 15  8 25 22  0  0.0 -.518961343914D-03 -.682121026330D-12  .000000000000D+00
     .770000000000D+02 -.100750000000D+03  .429053586090D-08 -.154655257921D+01
    -.537931919098D-05  .113539517624D-01  .645406544209D-05  .515513052177D+04
     .252000000000D+06  .154599547386D-06  .176783329724D+01 -.117346644402D-06
     .970251571718D+00  .252125000000D+03  .642855637495D+00 -.797711799327D-08
     .285726187357D-11  .100000000000D+01  .185900000000D+04  .000000000000D+00
     .240000000000D+01  .000000000000D+00 -.149011611938D-07  .770000000000D+02
     .244806000000D+06  .400000000000D+01
20 15  8 25 22  0  0.0  .349953770638D-03  .306954461848D-11  .000000000000D+00
     .850000000000D+02  .253125000000D+02  .572238121729D-08 -.113532193008D+01
     .139884650707D-05  .483830412850D-02  .630505383015D-05  .515362442589D+04
     .252000000000D+06 -.186264514923D-07 -.259078123520D+01  .113621354103D-06
     .926399215446D+00  .239375000000D+03  .120652568301D+01 -.860571560545D-08
     .241438628317D-09  .100000000000D+01  .185900000000D+04  .000000000000D+00
     .240000000000D+01  .000000000000D+00 -.838190317154D-08  .850000000000D+02
     .244806000000D+06  .400000000000D+01
21 15  8 25 22  0  0.0 -.474805478007D-03 -.295585778076D-11  .000000000000D+00
     .116000000000D+03 -.464687500000D+02  .493377694018D-08  .204960626009D+01
    -.259838998318D-05  .225365927909D-01  .106003135443D-04  .515377675056D+04
     .252000000000D+06  .115483999252D-06  .270203630435D+01 -.573694705963D-06
     .934831996054D+00  .162531250000D+03 -.188422725674D+01 -.792568727955D-08
     .388944772540D-09  .100000000000D+01  .185900000000D+04  .000000000000D+00
     .340000000000D+01  .000000000000D+00 -.116415321827D-07  .116000000000D+03
     .244806000000D+06  .400000000000D+01
23 15  8 25 22  0  0.0 -.129360239953D-03 -.227373675443D-11  .000000000000D+00
     .780000000000D+02 -.425000000000D+01  .490449000598D-08 -.164809143509D+01
    -.376254320145D-06  .104799353285D-01  .812485814095D-05  .515356889725D+04
     .252000000000D+06  .117346644402D-06 -.146495218493D+01 -.113621354103D-06
     .947403921965D+00  .214687500000D+03 -.263561766136D+01 -.807390773924D-08
    -.442161274935D-09  .100000000000D+01  .185900000000D+04  .000000000000D+00
     .240000000000D+01  .000000000000D+00 -.200234353542D-07  .780000000000D+02
     .244806000000D+06  .400000000000D+01
24 15  8 25 22  0  0.0 -.360049307346D-05 -.568434188608D-12  .000000000000D+00
     .800000000000D+02  .843750000000D+02  .433803783955D-08 -.236564103207D+01
     .447034835815D-05  .334403547458D-02  .102259218693D-04  .515366506195D+04
     .252000000000D+06 -.167638063431D-07 -.438199777991D+00  .242143869400D-07
     .952717151191D+00  .177562500000D+03  .319220413612D+00 -.792854454142D-08
    -.135719938995D-10  .100000000000D+01  .185900000000D+04  .000000000000D+00
     .340000000000D+01  .000000000000D+00  .232830643654D-08  .800000000000D+02
     .244806000000D+06  .400000000000D+01
25 15  8 25 22  0  0.0 -.301157124341D-04 -.488853402203D-11  .000000000000D+00
     .890000000000D+02  .549687500000D+02  .423196199249D-08  .183523476809D+01
     .275485217571D-05  .464025896508D-02  .293739140034D-05  .515363542175D+04
     .252000000000D+06 -.782310962677D-07  .626496276656D+00  .204890966415D-07
     .978514390503D+00  .329406250000D+03  .756528992149D+00 -.821891377932D-08
     .211437378644D-09  .100000000000D+01  .185900000000D+04  .000000000000D+00
     .240000000000D+01  .000000000000D+00  .512227416039D-08  .890000000000D+02
     .244806000000D+06  .400000000000D+01
26 15  8 25 22  0  0.0 -.355914235115D-04 -.932232069317D-11  .000000000000D+00
     .240000000000D+02  .447812500000D+02  .456376152756D-08  .176889621694D+00
     .232644379139D-05  .216035055928D-03  .297278165817D-05  .515362641144D+04
     .252000000000D+06  .186264514923D-07  .622341928708D+00 -.745058059692D-08
     .960600771369D+00  .321281250000D+03  .111052211270D+01 -.837606318237D-08
     .189650756858D-09  .100000000000D+01  .185900000000D+04  .000000000000D+00
     .240000000000D+01  .000000000000D+00  .745058059692D-08  .240000000000D+02
     .244806000000D+06  .400000000000D+01
27 15  8 25 22  0  0.0  .146552920341D-04  .295585778076D-11  .000000000000D+00
     .630000000000D+02 -.942187500000D+02  .443161316591D-08 -.540008954798D+00
    -.484660267830D-05  .261956767645D-02  .610947608948D-05  .515370001221D+04
     .252000000000D+06  .372529029846D-07  .167015550349D+01  .931322574615D-08
     .968062749299D+00  .264406250000D+03  .323952131438D+00 -.818069790176D-08
    -.985755346381D-10  .100000000000D+01  .185900000000D+04  .000000000000D+00
     .240000000000D+01  .000000000000D+00  .139698386192D-08  .630000000000D+02
     .244806000000D+06  .400000000000D+01
28 15  8 25 22  0  0.0  .463047996163D-03  .261479726760D-11  .000000000000D+00
     .103000000000D+03  .329375000000D+02  .412017162169D-08  .331101641770D+00
     .169314444065D-05  .196125357179D-01  .315904617310D-05  .515369634438D+04
     .252000000000D+06 -.357627868652D-06  .698120170890D+00 -.987201929092D-07
     .989203834893D+00  .335875000000D+03 -.165884777433D+01 -.849142513051D-08
     .867893294096D-10  .100000000000D+01  .185900000000D+04  .000000000000D+00
     .240000000000D+01  .000000000000D+00 -.111758708954D-07  .103000000000D+03
     .244806000000D+06  .400000000000D+01
29 15  8 25 22  0  0.0  .630197115242D-03  .238742359215D-11  .000000000000D+00
     .102000000000D+03 -.101968750000D+03  .426553481950D-08  .196519578305D+01
    -.556744635105D-05  .932991271839D-03  .602565705776D-05  .515370964432D+04
     .252000000000D+06 -.130385160446D-07  .172793892435D+01  .372529029846D-08
     .974041145432D+00  .272343750000D+03 -.455758662898D+00 -.801461955536D-08
    -.950039572962D-10  .100000000000D+01  .185900000000D+04  .000000000000D+00
     .340000000000D+01  .000000000000D+00 -.102445483208D-07  .102000000000D+03
     .244806000000D+06  .400000000000D+01
